NORAD_CAT_ID,OBJECT_NAME,OBJECT_TYPE,EPOCH,MEAN_MOTION,ECCENTRICITY,INCLINATION,RA_OF_ASC_NODE,ARG_OF_PERICENTER,MEAN_ANOMALY,BSTAR,MEAN_MOTION_DOT,MEAN_MOTION_DDOT,TLE_LINE0,TLE_LINE1,TLE_LINE2,SEMIMAJOR_AXIS,PERIOD,APOGEE,PERIGEE,DECAYED
53891.0,STARLINK-5041,PAYLOAD,2024-01-10 23:16:29,15.08843044,0.0001753,53.2166,264.9004,72.3255,287.7929,6.6647e-05,7.73e-06,0.0,0 STARLINK-5041,1 53891U 22119F   24010.96978256  .00000773  00000-0  66647-4 0  9990,2 53891  53.2166 264.9004 0001753  72.3255 287.7929 15.08843044 72196,6917.871,95.437,540.949,538.523,0.0
53891.0,STARLINK-5041,PAYLOAD,2024-01-11 21:31:52,15.08841984,0.0001563,53.2168,260.7362,100.2744,259.8425,5.6798e-05,6.16e-06,0.0,0 STARLINK-5041,1 53891U 22119F   24011.89714118  .00000616  00000-0  56798-4 0  9990,2 53891  53.2168 260.7362 0001563 100.2744 259.8425 15.08841984 72756,6917.874,95.437,540.821,538.658,0.0
53891.0,STARLINK-5041,PAYLOAD,2024-01-12 02:18:01,15.08846168,0.0001602,53.2162,259.8417,113.1213,246.9948,7.8906e-05,9.68e-06,0.0,0 STARLINK-5041,1 53891U 22119F   24012.09585646  .00000968  00000-0  78906-4 0  9990,2 53891  53.2162 259.8417 0001602 113.1213 246.9948 15.08846168 72361,6917.862,95.437,540.835,538.618,0.0
53891.0,STARLINK-5041,PAYLOAD,2024-01-12 19:47:17,15.08839482,0.0001844,53.2155,256.565,130.4134,229.7019,-7.781e-05,-1.526e-05,0.0,0 STARLINK-5041,1 53891U 22119F   24012.82450612 -.00001526  00000-0 -77810-4 0  9991,2 53891  53.2155 256.5650 0001844 130.4134 229.7019 15.08839482 72479,6917.882,95.438,541.023,538.471,0.0
53891.0,STARLINK-5041,PAYLOAD,2024-01-12 21:22:41,15.08830535,0.0001451,53.2164,256.2767,91.0349,269.0809,-2.6219e-05,-7.05e-06,0.0,0 STARLINK-5041,1 53891U 22119F   24012.89075352 -.00000705  00000-0 -26219-4 0  9997,2 53891  53.2164 256.2767 0001451  91.0349 269.0809 15.08830535 72901,6917.909,95.438,540.778,538.771,0.0
53891.0,STARLINK-5041,PAYLOAD,2024-01-12 22:58:03,15.08835917,0.0001369,53.2163,255.9713,109.6616,250.4523,-9.5206e-05,-1.803e-05,0.0,0 STARLINK-5041,1 53891U 22119F   24012.95699023 -.00001803  00000-0 -95206-4 0  9993,2 53891  53.2163 255.9713 0001369 109.6616 250.4523 15.08835917 72498,6917.893,95.438,540.705,538.811,0.0
53891.0,STARLINK-5041,PAYLOAD,2024-01-13 19:38:04,15.08844276,0.0001246,53.2164,252.1104,93.8005,266.3129,6.3717e-05,7.26e-06,0.0,0 STARLINK-5041,1 53891U 22119F   24013.81810477  .00000726  00000-0  63717-4 0  9990,2 53891  53.2164 252.1104 0001246  93.8005 266.3129 15.08844276 72623,6917.867,95.437,540.594,538.87,0.0
53891.0,STARLINK-5041,PAYLOAD,2024-01-13 22:48:50,15.08850795,0.0001316,53.2168,251.5125,98.1187,261.9955,7.0365e-05,8.32e-06,0.0,0 STARLINK-5041,1 53891U 22119F   24013.95058028  .00000832  00000-0  70365-4 0  9996,2 53891  53.2168 251.5125 0001316  98.1187 261.9955 15.08850795 72643,6917.847,95.437,540.623,538.802,0.0
53891.0,STARLINK-5041,PAYLOAD,2024-01-14 19:28:51,15.0883623,0.0001312,53.2162,247.6488,89.1773,270.937,0.00010857,1.44e-05,0.0,0 STARLINK-5041,1 53891U 22119F   24014.81171262  .00001440  00000-0  10857-3 0  9993,2 53891  53.2162 247.6488 0001312  89.1773 270.9370 15.08836230 72775,6917.892,95.438,540.665,538.849,0.0
53891.0,STARLINK-5041,PAYLOAD,2024-01-14 21:04:14,15.08838333,0.0001268,53.216,247.3517,98.0432,262.0704,0.00010982,1.46e-05,0.0,0 STARLINK-5041,1 53891U 22119F   24014.87795123  .00001460  00000-0  10982-3 0  9998,2 53891  53.2160 247.3517 0001268  98.0432 262.0704 15.08838333 73202,6917.885,95.438,540.628,538.873,0.0
53891.0,STARLINK-5041,PAYLOAD,2024-01-15 20:55:01,15.08844626,0.0001248,53.2157,242.8909,91.9483,268.1652,3.4224e-05,2.57e-06,0.0,0 STARLINK-5041,1 53891U 22119F   24015.87154991  .00000257  00000-0  34224-4 0  9990,2 53891  53.2157 242.8909 0001248  91.9483 268.1652 15.08844626 73356,6917.866,95.437,540.595,538.868,0.0
53891.0,STARLINK-5041,PAYLOAD,2024-01-16 01:41:11,15.08846133,0.0001294,53.2156,241.9999,88.4358,271.6782,5.5479e-05,5.95e-06,0.0,0 STARLINK-5041,1 53891U 22119F   24016.07026833  .00000595  00000-0  55479-4 0  9996,2 53891  53.2156 241.9999 0001294  88.4358 271.6782 15.08846133 72961,6917.862,95.437,540.622,538.831,0.0
53891.0,STARLINK-5041,PAYLOAD,2024-01-16 14:24:16,15.08838542,0.0001336,53.2151,239.6209,96.735,263.3794,7.9259e-05,9.74e-06,0.0,0 STARLINK-5041,1 53891U 22119F   24016.60019284  .00000974  00000-0  79259-4 0  9990,2 53891  53.2151 239.6209 0001336  96.7350 263.3794 15.08838542 73467,6917.885,95.438,540.674,538.826,0.0
53891.0,STARLINK-5041,PAYLOAD,2024-01-16 19:10:25,15.08839849,0.0001331,53.2151,238.7289,96.296,263.8184,8.3596e-05,1.043e-05,0.0,0 STARLINK-5041,1 53891U 22119F   24016.79891186  .00001043  00000-0  83596-4 0  9996,2 53891  53.2151 238.7289 0001331  96.2960 263.8184 15.08839849 73078,6917.881,95.438,540.667,538.825,0.0
53891.0,STARLINK-5041,PAYLOAD,2024-01-16 22:21:12,15.0882363,0.0001335,53.2156,238.1341,122.3331,237.779,0.00039648,6.025e-05,0.0,0 STARLINK-5041,1 53891U 22119F   24016.93139229  .00006025  00000-0  39648-3 0  9998,2 53891  53.2156 238.1341 0001335 122.3331 237.7790 15.08823630 73516,6917.93,95.439,540.719,538.872,0.0
53891.0,STARLINK-5041,PAYLOAD,2024-01-16 23:56:34,15.08845818,0.0001359,53.2151,237.8365,98.1867,261.928,0.00010776,1.428e-05,0.0,0 STARLINK-5041,1 53891U 22119F   24016.99762718  .00001428  00000-0  10776-3 0  9992,2 53891  53.2151 237.8365 0001359  98.1867 261.9280 15.08845818 73103,6917.863,95.437,540.668,538.787,0.0
53891.0,STARLINK-5041,PAYLOAD,2024-01-17 19:01:13,15.08836611,0.000133,53.2152,234.2677,105.9186,254.1953,1.5578e-05,-4e-07,0.0,0 STARLINK-5041,1 53891U 22119F   24017.79251661 -.00000040  00000-0  15578-4 0  9997,2 53891  53.2152 234.2677 0001330 105.9186 254.1953 15.08836611 73226,6917.891,95.438,540.676,538.836,0.0
53891.0,STARLINK-5041,PAYLOAD,2024-01-17 20:36:36,15.08837862,0.000137,53.2148,233.9703,110.7447,249.3692,2.5036e-05,1.11e-06,0.0,0 STARLINK-5041,1 53891U 22119F   24017.85875533  .00000111  00000-0  25036-4 0  9992,2 53891  53.2148 233.9703 0001370 110.7447 249.3692 15.08837862 73657,6917.887,95.438,540.7,538.804,0.0
53891.0,STARLINK-5041,PAYLOAD,2024-01-18 18:51:59,15.08847861,0.0001334,53.2156,229.8063,101.3478,258.7664,7.72e-05,9.41e-06,0.0,0 STARLINK-5041,1 53891U 22119F   24018.78610894  .00000941  00000-0  77200-4 0  9993,2 53891  53.2156 229.8063 0001334 101.3478 258.7664 15.08847861 73371,6917.856,95.437,540.644,538.799,0.0
53891.0,STARLINK-5041,PAYLOAD,2024-01-18 20:27:22,15.08850281,0.0001437,53.2156,229.5077,113.3069,246.8074,8.2536e-05,1.026e-05,0.0,0 STARLINK-5041,1 53891U 22119F   24018.85234647  .00001026  00000-0  82536-4 0  9992,2 53891  53.2156 229.5077 0001437 113.3069 246.8074 15.08850281 73807,6917.849,95.437,540.708,538.72,0.0
53891.0,STARLINK-5041,PAYLOAD,2024-01-19 18:42:47,15.08841962,0.0001397,53.2153,225.3464,81.499,278.6161,9.6143e-05,1.243e-05,0.0,0 STARLINK-5041,1 53891U 22119F   24019.77971245  .00001243  00000-0  96143-4 0  9996,2 53891  53.2153 225.3464 0001397  81.4990 278.6161 15.08841962 73526,6917.874,95.437,540.706,538.773,0.0
53891.0,STARLINK-5041,PAYLOAD,2024-01-19 20:18:10,15.08842738,0.0001398,53.2153,225.0488,82.0758,278.0393,9.974e-05,1.3e-05,0.0,0 STARLINK-5041,1 53891U 22119F   24019.84595162  .00001300  00000-0  99740-4 0  9994,2 53891  53.2153 225.0488 0001398  82.0758 278.0393 15.08842738 73959,6917.872,95.437,540.704,538.77,0.0
53891.0,STARLINK-5041,PAYLOAD,2024-01-19 23:28:56,15.08842682,0.0001404,53.2152,224.4545,81.0017,279.1134,9.6368e-05,1.246e-05,0.0,0 STARLINK-5041,1 53891U 22119F   24019.97843160  .00001246  00000-0  96368-4 0  9994,2 53891  53.2152 224.4545 0001404  81.0017 279.1134 15.08842682 73975,6917.872,95.437,540.708,538.766,0.0
53891.0,STARLINK-5041,PAYLOAD,2024-01-20 18:33:34,15.08837278,0.0001415,53.2151,220.8836,105.8739,254.2409,-7.9246e-05,-1.549e-05,0.0,0 STARLINK-5041,1 53891U 22119F   24020.77331997 -.00001549  00000-0 -79246-4 0  9998,2 53891  53.2151 220.8836 0001415 105.8739 254.2409 15.08837278 73676,6917.889,95.438,540.733,538.775,0.0
53891.0,STARLINK-5041,PAYLOAD,2024-01-20 23:19:45,15.08800267,0.0001556,53.2152,219.9922,98.1291,261.9877,0.00039486,5.995e-05,0.0,0 STARLINK-5041,1 53891U 22119F   24020.97205159  .00005995  00000-0  39486-3 0  9998,2 53891  53.2152 219.9922 0001556  98.1291 261.9877 15.08800267 73701,6918.002,95.44,540.943,538.79,0.0
53891.0,STARLINK-5041,PAYLOAD,2024-01-21 13:38:12,15.08843987,0.0001225,53.2153,217.3156,103.2922,256.8206,-1.0022e-05,-4.47e-06,0.0,0 STARLINK-5041,1 53891U 22119F   24021.56819600 -.00000447  00000-0 -10022-4 0  9991,2 53891  53.2153 217.3156 0001225 103.2922 256.8206 15.08843987 73799,6917.868,95.437,540.581,538.886,0.0
53891.0,STARLINK-5041,PAYLOAD,2024-01-21 19:59:44,15.08841153,0.0001308,53.2154,216.1267,97.6807,262.4333,6.1897e-05,6.97e-06,0.0,0 STARLINK-5041,1 53891U 22119F   24021.83315521  .00000697  00000-0  61897-4 0  9995,2 53891  53.2154 216.1267 0001308  97.6807 262.4333 15.08841153 74259,6917.877,95.437,540.647,538.837,0.0
53891.0,STARLINK-5041,PAYLOAD,2024-01-21 23:10:30,15.08840438,0.0001306,53.2153,215.5322,96.2053,263.9088,5.2308e-05,5.45e-06,0.0,0 STARLINK-5041,1 53891U 22119F   24021.96563570  .00000545  00000-0  52308-4 0  9997,2 53891  53.2153 215.5322 0001306  96.2053 263.9088 15.08840438 74279,6917.879,95.438,540.648,538.841,0.0
53891.0,STARLINK-5041,PAYLOAD,2024-01-22 11:53:36,15.08834974,0.0001306,53.2161,213.1544,98.2755,261.8385,0.00011298,1.51e-05,0.0,0 STARLINK-5041,1 53891U 22119F   24022.49555930  .00001510  00000-0  11298-3 0  9992,2 53891  53.2161 213.1544 0001306  98.2755 261.8385 15.08834974 73936,6917.896,95.438,540.664,538.857,0.0
53891.0,STARLINK-5041,PAYLOAD,2024-01-22 19:50:31,15.08838392,0.0001254,53.216,211.6679,89.7581,270.3555,0.00010792,1.43e-05,0.0,0 STARLINK-5041,1 53891U 22119F   24022.82675861  .00001430  00000-0  10792-3 0  9994,2 53891  53.2160 211.6679 0001254  89.7581 270.3555 15.08838392 74406,6917.885,95.438,540.618,538.883,0.0
